{
  "ca":{
    "total":2137551,
    "region":2132784,
    "postcode":1931002,
    "post_town":0,
    "admin_region":0,
    "po_box":34607
  },
  "tr":{
    "total":174929,
    "region":152065,
    "postcode":49717,
    "post_town":149181,
    "admin_region":0,
    "po_box":0
  },
  "no":{
    "total":403376,
    "region":0,
    "postcode":402963,
    "post_town":0,
    "admin_region":0,
    "po_box":0
  },
  "jp":{
    "total":3138650,
    "region":3069849,
    "postcode":2581246,
    "post_town":0,
    "admin_region":0,
    "po_box":0
  },
  "nz":{
    "total":76473,
    "region":7,
    "postcode":26024,
    "post_town":0,
    "admin_region":0,
    "po_box":0
  },
  "br":{
    "total":1818302,
    "region":1585749,
    "postcode":1029265,
    "post_town":1252716,
    "admin_region":0,
    "po_box":0
  },
  "gb":{
    "total":3210328,
    "region":2936784,
    "postcode":3137810,
    "post_town":1163990,
    "admin_region":2936759,
    "po_box":0
  },
  "th":{
    "total":88794,
    "region":24398,
    "postcode":66660,
    "post_town":32470,
    "admin_region":71651,
    "po_box":0
  },
  "fi":{
    "total":376903,
    "region":1,
    "postcode":370190,
    "post_town":0,
    "admin_region":0,
    "po_box":0
  },
  "the netherlands":{
    "total":2,
    "region":1,
    "postcode":2,
    "post_town":0,
    "admin_region":0,
    "po_box":0
  },
  "fr":{
    "total":4418583,
    "region":4366707,
    "postcode":4321789,
    "post_town":0,
    "admin_region":4387924,
    "po_box":0
  },
  "be":{
    "total":257663,
    "region":79864,
    "postcode":236029,
    "post_town":0,
    "admin_region":0,
    "po_box":0
  },
  "united state":{
    "total":1,
    "region":1,
    "postcode":1,
    "post_town":0,
    "admin_region":0,
    "po_box":0
  },
  "cz":{
    "total":33725,
    "region":10800,
    "postcode":21551,
    "post_town":0,
    "admin_region":0,
    "po_box":0
  },
  "se":{
    "total":1081609,
    "region":1069280,
    "postcode":953467,
    "post_town":0,
    "admin_region":0,
    "po_box":32063
  },
  "kr":{
    "total":381619,
    "region":370421,
    "postcode":228995,
    "post_town":219480,
    "admin_region":0,
    "po_box":0
  },
  "sg":{
    "total":190685,
    "region":0,
    "postcode":169751,
    "post_town":0,
    "admin_region":0,
    "po_box":85
  },
  "pe":{
    "total":24458,
    "region":16749,
    "postcode":1,
    "post_town":2051,
    "admin_region":1351,
    "po_box":0
  },
  "co":{
    "total":82128,
    "region":60332,
    "postcode":9,
    "post_town":0,
    "admin_region":0,
    "po_box":0
  },
  "cn":{
    "total":9473669,
    "region":9138592,
    "postcode":9468652,
    "post_town":6557421,
    "admin_region":0,
    "po_box":0
  },
  "cl":{
    "total":110418,
    "region":108282,
    "postcode":1,
    "post_town":0,
    "admin_region":107773,
    "po_box":0
  },
  "pl":{
    "total":206390,
    "region":0,
    "postcode":179501,
    "post_town":0,
    "admin_region":0,
    "po_box":0
  },
  "ru":{
    "total":953436,
    "region":920590,
    "postcode":915995,
    "post_town":0,
    "admin_region":0,
    "po_box":0
  },
  "ch":{
    "total":711733,
    "region":246947,
    "postcode":705742,
    "post_town":0,
    "admin_region":0,
    "po_box":0
  },
  "gr":{
    "total":24331,
    "region":8476,
    "postcode":21690,
    "post_town":0,
    "admin_region":0,
    "po_box":0
  },
  "ph":{
    "total":78755,
    "region":75667,
    "postcode":36918,
    "post_town":0,
    "admin_region":0,
    "po_box":0
  },
  "hr":{
    "total":43908,
    "region":43180,
    "postcode":16159,
    "post_town":0,
    "admin_region":0,
    "po_box":0
  },
  "hu":{
    "total":74972,
    "region":3,
    "postcode":46488,
    "post_town":13140,
    "admin_region":0,
    "po_box":0
  },
  "hk":{
    "total":141403,
    "region":134610,
    "postcode":0,
    "post_town":0,
    "admin_region":0,
    "po_box":0
  },
  "lu":{
    "total":28581,
    "region":0,
    "postcode":28466,
    "post_town":0,
    "admin_region":0,
    "po_box":0
  },
  "za":{
    "total":50678,
    "region":50272,
    "postcode":14128,
    "post_town":0,
    "admin_region":0,
    "po_box":0
  },
  "vn":{
    "total":44259,
    "region":15878,
    "postcode":0,
    "post_town":32795,
    "admin_region":0,
    "po_box":0
  },
  "de":{
    "total":4801817,
    "region":4721145,
    "postcode":4707479,
    "post_town":0,
    "admin_region":0,
    "po_box":0
  },
  "id":{
    "total":129619,
    "region":119733,
    "postcode":74588,
    "post_town":100105,
    "admin_region":0,
    "po_box":0
  },
  "dk":{
    "total":513501,
    "region":3,
    "postcode":512415,
    "post_town":0,
    "admin_region":0,
    "po_box":0
  },
  "ie":{
    "total":229174,
    "region":146353,
    "postcode":2,
    "post_town":0,
    "admin_region":0,
    "po_box":0
  },
  "ve":{
    "total":28399,
    "region":18847,
    "postcode":0,
    "post_town":0,
    "admin_region":0,
    "po_box":0
  },
  "it":{
    "total":2977709,
    "region":2871408,
    "postcode":2885049,
    "post_town":0,
    "admin_region":2726528,
    "po_box":0
  },
  "at":{
    "total":476198,
    "region":470484,
    "postcode":459570,
    "post_town":0,
    "admin_region":0,
    "po_box":0
  },
  "ar":{
    "total":229606,
    "region":165826,
    "postcode":33172,
    "post_town":0,
    "admin_region":0,
    "po_box":0
  },
  "us":{
    "total":23301858,
    "region":23299870,
    "postcode":21991865,
    "post_town":0,
    "admin_region":0,
    "po_box":704963
  },
  "mx":{
    "total":120205,
    "region":116483,
    "postcode":106021,
    "post_town":0,
    "admin_region":0,
    "po_box":6
  },
  "il":{
    "total":74874,
    "region":0,
    "postcode":1487,
    "post_town":1297,
    "admin_region":0,
    "po_box":0
  },
  "my":{
    "total":156670,
    "region":153047,
    "postcode":127267,
    "post_town":0,
    "admin_region":0,
    "po_box":0
  },
  "in":{
    "total":155520,
    "region":77871,
    "postcode":152305,
    "post_town":0,
    "admin_region":0,
    "po_box":0
  },
  "au":{
    "total":1463480,
    "region":1456677,
    "postcode":1404872,
    "post_town":0,
    "admin_region":0,
    "po_box":63975
  },
  "eg":{
    "total":12220,
    "region":0,
    "postcode":0,
    "post_town":0,
    "admin_region":0,
    "po_box":0
  },
  "tw":{
    "total":836482,
    "region":798395,
    "postcode":338012,
    "post_town":0,
    "admin_region":0,
    "po_box":0
  },
  "pt":{
    "total":324701,
    "region":316400,
    "postcode":305811,
    "post_town":0,
    "admin_region":0,
    "po_box":0
  },
  "es":{
    "total":1915823,
    "region":1843526,
    "postcode":1754859,
    "post_town":0,
    "admin_region":1837371,
    "po_box":0
  },
  "pr":{
    "total":29113,
    "region":0,
    "postcode":20947,
    "post_town":0,
    "admin_region":0,
    "po_box":0
  },
  "nl":{
    "total":351796,
    "region":85959,
    "postcode":351796,
    "post_town":0,
    "admin_region":0,
    "po_box":0
  }
}
