{
  "countries":
  {
    "08d549a4-8f76-11e1-848f-cfd5bf3ef515":
    {
      "country":"us",
      "name":"United States",
      "name_en":"United States",
      "regions":
      {
        "08649ef2-8f76-11e1-848f-cfd5bf3ef515":{"region":"ks","name_en":"Kansas"},
        "08649dbc-8f76-11e1-848f-cfd5bf3ef515":{"region":"ga","name_en":"Georgia"},
        "0864a35c-8f76-11e1-848f-cfd5bf3ef515":{"region":"sd","name_en":"South Dakota"},
        "08649cb8-8f76-11e1-848f-cfd5bf3ef515":{"region":"co","name_en":"Colorado"},
        "0864a55a-8f76-11e1-848f-cfd5bf3ef515":{"region":"ar","name_en":"Arkansas"},
        "08649f24-8f76-11e1-848f-cfd5bf3ef515":{"region":"ky","name_en":"Kentucky"},
        "0864a01e-8f76-11e1-848f-cfd5bf3ef515":{"region":"mn","name_en":"Minnesota"},
        "08649cf4-8f76-11e1-848f-cfd5bf3ef515":{"region":"ct","name_en":"Connecticut"},
        "0864a58c-8f76-11e1-848f-cfd5bf3ef515":{"region":"ok","name_en":"Oklahoma"},
        "08649e20-8f76-11e1-848f-cfd5bf3ef515":{"region":"id","name_en":"Idaho"},
        "0864a154-8f76-11e1-848f-cfd5bf3ef515":{"region":"nh","name_en":"New Hampshire"},
        "08649e52-8f76-11e1-848f-cfd5bf3ef515":{"region":"il","name_en":"Illinois"},
        "0864a38e-8f76-11e1-848f-cfd5bf3ef515":{"region":"tn","name_en":"Tennessee"},
        "0864a492-8f76-11e1-848f-cfd5bf3ef515":{"region":"wa","name_en":"Washington"},
        "08649bf0-8f76-11e1-848f-cfd5bf3ef515":{"region":"al","name_en":"Alabama"},
        "0864a1c2-8f76-11e1-848f-cfd5bf3ef515":{"region":"nm","name_en":"New Mexico"},
        "08649d26-8f76-11e1-848f-cfd5bf3ef515":{"region":"de","name_en":"Delaware"},
        "0864a5be-8f76-11e1-848f-cfd5bf3ef515":{"region":"nc","name_en":"North Carolina"},
        "0864a2bc-8f76-11e1-848f-cfd5bf3ef515":{"region":"pa","name_en":"Pennsylvania"},
        "0864a3c0-8f76-11e1-848f-cfd5bf3ef515":{"region":"ks","name_en":"Texas"},
        "0864a050-8f76-11e1-848f-cfd5bf3ef515":{"region":"ms","name_en":"Mississippi"},
        "0864a08c-8f76-11e1-848f-cfd5bf3ef515":{"region":"mo","name_en":"Missouri"},
        "0864a226-8f76-11e1-848f-cfd5bf3ef515":{"region":"nd","name_en":"North Dakota"},
        "08649ec0-8f76-11e1-848f-cfd5bf3ef515":{"region":"ia","name_en":"Iowa"},
        "08649fec-8f76-11e1-848f-cfd5bf3ef515":{"region":"mi","name_en":"Michigan"},
        "08649d58-8f76-11e1-848f-cfd5bf3ef515":{"region":"dc","name_en":"District of Columbia"},
        "0864a60e-8f76-11e1-848f-cfd5bf3ef515":{"region":"la","name_en":"Louisiana"},
        "0864a122-8f76-11e1-848f-cfd5bf3ef515":{"region":"nv","name_en":"Nevada"},
        "0864a2ee-8f76-11e1-848f-cfd5bf3ef515":{"region":"ri","name_en":"Rhode Island"},
        "0864a28a-8f76-11e1-848f-cfd5bf3ef515":{"region":"or","name_en":"Oregon"},
        "08649f56-8f76-11e1-848f-cfd5bf3ef515":{"region":"me","name_en":"Maine"},
        "08649fba-8f76-11e1-848f-cfd5bf3ef515":{"region":"ma","name_en":"Massachusetts"},
        "08649e84-8f76-11e1-848f-cfd5bf3ef515":{"region":"in","name_en":"Indiana"},
        "08649f88-8f76-11e1-848f-cfd5bf3ef515":{"region":"md","name_en":"Maryland"},
        "0864a258-8f76-11e1-848f-cfd5bf3ef515":{"region":"oh","name_en":"Ohio"},
        "0864a460-8f76-11e1-848f-cfd5bf3ef515":{"region":"va","name_en":"Virginia"},
        "0864a4c4-8f76-11e1-848f-cfd5bf3ef515":{"region":"wv","name_en":"West Virginia"},
        "08649c22-8f76-11e1-848f-cfd5bf3ef515":{"region":"ak","name_en":"Alaska"},
        "0864a0be-8f76-11e1-848f-cfd5bf3ef515":{"region":"mt","name_en":"Montana"},
        "0864a0f0-8f76-11e1-848f-cfd5bf3ef515":{"region":"ne","name_en":"Nebraska"},
        "0864a190-8f76-11e1-848f-cfd5bf3ef515":{"region":"nj","name_en":"New Jersey"},
        "08649d8a-8f76-11e1-848f-cfd5bf3ef515":{"region":"fl","name_en":"Florida"},
        "0864a4f6-8f76-11e1-848f-cfd5bf3ef515":{"region":"wi","name_en":"Wisconsin"},
        "08649c54-8f76-11e1-848f-cfd5bf3ef515":{"region":"az","name_en":"Arizona"},
        "0864a320-8f76-11e1-848f-cfd5bf3ef515":{"region":"sc","name_en":"South Carolina"},
        "08649c86-8f76-11e1-848f-cfd5bf3ef515":{"region":"ca","name_en":"California"},
        "0864a528-8f76-11e1-848f-cfd5bf3ef515":{"region":"wy","name_en":"Wyoming"},
        "0864a3f2-8f76-11e1-848f-cfd5bf3ef515":{"region":"ut","name_en":"Utah"},
        "0864a424-8f76-11e1-848f-cfd5bf3ef515":{"region":"vt","name_en":"Vermont"},
        "0864a1f4-8f76-11e1-848f-cfd5bf3ef515":{"region":"ny","name_en":"New York"},
        "08649dee-8f76-11e1-848f-cfd5bf3ef515":{"region":"hi","name_en":"Hawaii"}
      }
    },
    "03c23d14-8f76-11e1-848f-cfd5bf3ef515":
    {
      "country":"ca",
      "name":"Canada",
      "name_en":"Canada",
      "regions":
      {
        "03b2b966-8f76-11e1-848f-cfd5bf3ef515":{"region":"nu","name_en":"Nunavut"},
        "03b2b826-8f76-11e1-848f-cfd5bf3ef515":{"region":"nt","name_en":"Northwest Territories"},
        "03b2b722-8f76-11e1-848f-cfd5bf3ef515":{"region":"ab","name_en":"Alberta"},
        "03b2b998-8f76-11e1-848f-cfd5bf3ef515":{"region":"on","name_en":"Ontario"},
        "03b2b75e-8f76-11e1-848f-cfd5bf3ef515":{"region":"bc","name_en":"British Columbia"},
        "03b2b894-8f76-11e1-848f-cfd5bf3ef515":{"region":"pe","name_en":"Prince Edward Island"},
        "03b2b8c6-8f76-11e1-848f-cfd5bf3ef515":{"region":"qc","name_en":"Quebec"},
        "03b2b790-8f76-11e1-848f-cfd5bf3ef515":{"region":"ma","name_en":"Manitoba"},
        "03b2b92a-8f76-11e1-848f-cfd5bf3ef515":{"region":"yu","name_en":"Yukon Territory"},
        "03b2b7c2-8f76-11e1-848f-cfd5bf3ef515":{"region":"nb","name_en":"New Brunswick"},
        "03b2b8f8-8f76-11e1-848f-cfd5bf3ef515":{"region":"sa","name_en":"Saskatchewan"},
        "03b2b7f4-8f76-11e1-848f-cfd5bf3ef515":{"region":"nl","name_en":"Newfoundland and Labrador"},
        "03b2b862-8f76-11e1-848f-cfd5bf3ef515":{"region":"ns","name_en":"Nova Scotia"}
      }
    },
    "14701622-8f76-11e1-848f-cfd5bf3ef515":
    {
      "country":"kr",
      "name":"한국",
      "name_en":"Korea",
      "regions":
      {
        "146d24da-8f76-11e1-848f-cfd5bf3ef515":{"region":"인천","name_en":"Incheon"},
        "146d22d2-8f76-11e1-848f-cfd5bf3ef515":{"region":"충청북도","name_en":"Chungcheongbuk-Do"},
        "146d250c-8f76-11e1-848f-cfd5bf3ef515":{"region":"서울","name_en":"Seoul"},
        "146d2340-8f76-11e1-848f-cfd5bf3ef515":{"region":"경상남도","name_en":"Gyeongsangnam-Do"},
        "146d2444-8f76-11e1-848f-cfd5bf3ef515":{"region":"충청남도","name_en":"Chungcheongnam-Do"},
        "146d2548-8f76-11e1-848f-cfd5bf3ef515":{"region":"울산","name_en":"Ulsan"},
        "146d23a4-8f76-11e1-848f-cfd5bf3ef515":{"region":"경상북도","name_en":"Gyeongsangbuk-Do"},
        "146d22a0-8f76-11e1-848f-cfd5bf3ef515":{"region":"전라북도","name_en":"Jeollabuk-Do"},
        "146d2476-8f76-11e1-848f-cfd5bf3ef515":{"region":"광주","name_en":"Gwangju"},
        "146d2412-8f76-11e1-848f-cfd5bf3ef515":{"region":"전라남도","name_en":"Jeollanam-Do"},
        "146d23d6-8f76-11e1-848f-cfd5bf3ef515":{"region":"대구","name_en":"Daegu"},
        "146d226e-8f76-11e1-848f-cfd5bf3ef515":{"region":"제주특별자치도","name_en":"Jaeju-Do"},
        "146d230e-8f76-11e1-848f-cfd5bf3ef515":{"region":"강원도","name_en":"Kangwon-Do"},
        "146d24a8-8f76-11e1-848f-cfd5bf3ef515":{"region":"대전","name_en":"Daejon"},
        "146d257a-8f76-11e1-848f-cfd5bf3ef515":{"region":"경기도","name_en":"Kyeongki-Do"},
        "146d2372-8f76-11e1-848f-cfd5bf3ef515":{"region":"부산","name_en":"Busan"}
      }
    }
  }
}